NORAD_CAT_ID,OBJECT_NAME,OBJECT_TYPE,EPOCH,MEAN_MOTION,ECCENTRICITY,INCLINATION,RA_OF_ASC_NODE,ARG_OF_PERICENTER,MEAN_ANOMALY,BSTAR,MEAN_MOTION_DOT,MEAN_MOTION_DDOT,TLE_LINE0,TLE_LINE1,TLE_LINE2,SEMIMAJOR_AXIS,PERIOD,APOGEE,PERIGEE,DECAYED
53979.0,STARLINK-5123,PAYLOAD,2023-01-29 16:07:21,15.08834271,0.0001237,53.2168,274.3767,104.033,256.08,8.6534e-05,1.089e-05,0.0,0 STARLINK-5123,1 53979U 22125R   23029.67177880  .00001089  00000-0  86534-4 0  9993,2 53979  53.2168 274.3767 0001237 104.0330 256.0800 15.08834271 18111,6917.898,95.438,540.619,538.907,0.0
53979.0,STARLINK-5123,PAYLOAD,2023-01-29 22:28:53,15.08841994,0.0001238,53.2164,273.1889,96.4456,263.6677,7.473e-05,9.02e-06,0.0,0 STARLINK-5123,1 53979U 22125R   23029.93673465  .00000902  00000-0  74730-4 0  9990,2 53979  53.2164 273.1889 0001238  96.4456 263.6677 15.08841994 18085,6917.874,95.437,540.596,538.883,0.0
53979.0,STARLINK-5123,PAYLOAD,2023-01-30 15:58:08,15.08839198,0.0001259,53.2164,269.9177,87.0457,273.0679,2.0232e-05,3.4e-07,0.0,0 STARLINK-5123,1 53979U 22125R   23030.66537857  .00000034  00000-0  20232-4 0  9990,2 53979  53.2164 269.9177 0001259  87.0457 273.0679 15.08839198 18268,6917.883,95.438,540.619,538.877,0.0
53979.0,STARLINK-5123,PAYLOAD,2023-01-30 22:19:41,15.08838346,0.0001228,53.2158,268.7283,85.0614,275.0519,2.1415e-05,5.3e-07,0.0,0 STARLINK-5123,1 53979U 22125R   23030.93033877  .00000053  00000-0  21415-4 0  9998,2 53979  53.2158 268.7283 0001228  85.0614 275.0519 15.08838346 18231,6917.885,95.438,540.6,538.901,0.0
53979.0,STARLINK-5123,PAYLOAD,2023-01-31 01:30:27,15.08841399,0.0001228,53.216,268.133,85.2611,274.8521,2.8303e-05,1.63e-06,0.0,0 STARLINK-5123,1 53979U 22125R   23031.06281661  .00000163  00000-0  28303-4 0  9994,2 53979  53.2160 268.1330 0001228  85.2611 274.8521 15.08841399 18254,6917.876,95.437,540.591,538.892,0.0
53979.0,STARLINK-5123,PAYLOAD,2023-01-31 22:10:27,15.08843993,0.000112,53.2143,264.267,81.7886,278.3233,5.8732e-05,6.47e-06,0.0,0 STARLINK-5123,1 53979U 22125R   23031.92393312  .00000647  00000-0  58732-4 0  9992,2 53979  53.2143 264.2670 0001120  81.7886 278.3233 15.08843993 18380,6917.868,95.437,540.508,538.958,0.0
53979.0,STARLINK-5123,PAYLOAD,2023-02-01 22:01:14,15.08841091,9.87e-05,53.2157,259.8054,75.1505,284.9597,4.5059e-05,4.29e-06,0.0,0 STARLINK-5123,1 53979U 22125R   23032.91753462  .00000429  00000-0  45059-4 0  9994,2 53979  53.2157 259.8054 0000987  75.1505 284.9597 15.08841091 18604,6917.877,95.437,540.425,539.059,0.0
53979.0,STARLINK-5123,PAYLOAD,2023-02-03 01:02:48,15.08841966,0.0001087,53.216,254.7495,72.6696,287.4415,1.4174e-05,-6.2e-07,0.0,0 STARLINK-5123,1 53979U 22125R   23034.04361563 -.00000062  00000-0  14174-4 0  9995,2 53979  53.2160 254.7495 0001087  72.6696 287.4415 15.08841966 18772,6917.874,95.437,540.491,538.987,0.0
53979.0,STARLINK-5123,PAYLOAD,2023-02-03 16:56:40,15.08839454,0.0001149,53.2158,251.7759,76.8728,283.2392,-9.5823e-05,-1.812e-05,0.0,0 STARLINK-5123,1 53979U 22125R   23034.70602381 -.00001812  00000-0 -95823-4 0  9999,2 53979  53.2158 251.7759 0001149  76.8728 283.2392 15.08839454 18878,6917.882,95.438,540.542,538.952,0.0
53979.0,STARLINK-5123,PAYLOAD,2023-02-04 08:50:31,15.0883961,0.0001238,53.2149,248.8027,85.1164,274.9969,9.0942e-05,1.16e-05,0.0,0 STARLINK-5123,1 53979U 22125R   23035.36841840  .00001160  00000-0  90942-4 0  9998,2 53979  53.2149 248.8027 0001238  85.1164 274.9969 15.08839610 18904,6917.882,95.438,540.603,538.89,0.0
53979.0,STARLINK-5123,PAYLOAD,2023-02-04 19:58:12,15.08845534,0.0001171,53.2151,246.7207,93.4192,266.6934,0.00010432,1.373e-05,0.0,0 STARLINK-5123,1 53979U 22125R   23035.83209385  .00001373  00000-0  10432-3 0  9993,2 53979  53.2151 246.7207 0001171  93.4192 266.6934 15.08845534 19041,6917.863,95.437,540.539,538.918,0.0
53979.0,STARLINK-5123,PAYLOAD,2023-02-04 21:33:35,15.08846349,0.0001189,53.215,246.4236,89.3296,270.7832,0.00010848,1.439e-05,0.0,0 STARLINK-5123,1 53979U 22125R   23035.89833332  .00001439  00000-0  10848-3 0  9998,2 53979  53.2150 246.4236 0001189  89.3296 270.7832 15.08846349 18987,6917.861,95.437,540.549,538.903,0.0
53979.0,STARLINK-5123,PAYLOAD,2023-02-05 08:41:19,15.08813364,0.0001474,53.215,244.3433,82.0906,278.0253,0.00047904,7.339e-05,0.0,0 STARLINK-5123,1 53979U 22125R   23036.36202876  .00007339  00000-0  47904-3 0  9992,2 53979  53.2150 244.3433 0001474  82.0906 278.0253 15.08813364 19124,6917.962,95.439,540.847,538.807,0.0
53979.0,STARLINK-5123,PAYLOAD,2023-02-05 13:27:27,15.08837655,8.75e-05,53.2174,243.4501,135.3753,224.731,5.993e-05,6.66e-06,0.0,0 STARLINK-5123,1 53979U 22125R   23036.56073840  .00000666  00000-0  59930-4 0  9990,2 53979  53.2174 243.4501 0000875 135.3753 224.7310 15.08837655 19088,6917.888,95.438,540.358,539.147,0.0
53979.0,STARLINK-5123,PAYLOAD,2023-02-05 19:49:00,15.08836184,0.0001006,53.2153,242.2606,97.2832,262.8275,3.9906e-05,3.47e-06,0.0,0 STARLINK-5123,1 53979U 22125R   23036.82570191  .00000347  00000-0  39906-4 0  9997,2 53979  53.2153 242.2606 0001006  97.2832 262.8275 15.08836184 19190,6917.892,95.438,540.453,539.061,0.0
53979.0,STARLINK-5123,PAYLOAD,2023-02-06 19:39:47,15.08843639,0.0001091,53.2154,237.8007,82.8282,277.2834,2.1443e-05,5.4e-07,0.0,0 STARLINK-5123,1 53979U 22125R   23037.81929891  .00000054  00000-0  21443-4 0  9994,2 53979  53.2154 237.8007 0001091  82.8282 277.2834 15.08843639 19272,6917.869,95.437,540.489,538.98,0.0
53979.0,STARLINK-5123,PAYLOAD,2023-02-06 22:50:33,15.08846445,0.0001099,53.2154,237.2058,81.4491,278.6626,6.2509e-05,7.07e-06,0.0,0 STARLINK-5123,1 53979U 22125R   23037.95177578  .00000707  00000-0  62509-4 0  9999,2 53979  53.2154 237.2058 0001099  81.4491 278.6626 15.08846445 19369,6917.861,95.437,540.486,538.965,0.0
53979.0,STARLINK-5123,PAYLOAD,2023-02-07 19:30:34,15.08841678,0.0001138,53.2154,233.3396,83.7341,276.3781,0.00011701,1.575e-05,0.0,0 STARLINK-5123,1 53979U 22125R   23038.81289720  .00001575  00000-0  11701-3 0  9999,2 53979  53.2154 233.3396 0001138  83.7341 276.3781 15.08841678 19498,6917.875,95.437,540.528,538.953,0.0
53979.0,STARLINK-5123,PAYLOAD,2023-02-08 08:13:39,15.08840304,0.000117,53.2154,230.9622,69.5196,290.5921,4.2343e-05,3.86e-06,0.0,0 STARLINK-5123,1 53979U 22125R   23039.34282145  .00000386  00000-0  42343-4 0  9998,2 53979  53.2154 230.9622 0001170  69.5196 290.5921 15.08840304 19577,6917.879,95.438,540.554,538.935,0.0
53979.0,STARLINK-5123,PAYLOAD,2023-02-08 17:45:58,15.08839786,0.0001053,53.2161,229.1752,102.3293,257.7818,1.7209e-05,-1.4e-07,0.0,0 STARLINK-5123,1 53979U 22125R   23039.74026127 -.00000014  00000-0  17209-4 0  9990,2 53979  53.2161 229.1752 0001053 102.3293 257.7818 15.08839786 19564,6917.881,95.438,540.474,539.018,0.0
53979.0,STARLINK-5123,PAYLOAD,2023-02-09 08:04:27,15.08836392,0.0001017,53.2162,226.5005,85.1939,274.9169,2.0891e-05,4.5e-07,0.0,0 STARLINK-5123,1 53979U 22125R   23040.33642458  .00000045  00000-0  20891-4 0  9992,2 53979  53.2162 226.5005 0001017  85.1939 274.9169 15.08836392 19652,6917.891,95.438,540.46,539.053,0.0
53979.0,STARLINK-5123,PAYLOAD,2023-02-09 19:12:08,15.08852664,0.0001012,53.216,224.4193,78.5402,281.5704,-8.0948e-05,-1.576e-05,0.0,0 STARLINK-5123,1 53979U 22125R   23040.80009837 -.00001576  00000-0 -80948-4 0  9993,2 53979  53.2160 224.4193 0001012  78.5402 281.5704 15.08852664 19795,6917.842,95.437,540.407,539.007,0.0
53979.0,STARLINK-5123,PAYLOAD,2023-02-10 14:16:46,15.08832723,0.0001014,53.2159,220.8508,91.2342,268.8766,6.5036e-05,7.47e-06,0.0,0 STARLINK-5123,1 53979U 22125R   23041.59498832  .00000747  00000-0  65036-4 0  9995,2 53979  53.2159 220.8508 0001014  91.2342 268.8766 15.08832723 19914,6917.903,95.438,540.469,539.066,0.0
53979.0,STARLINK-5123,PAYLOAD,2023-02-10 15:52:10,15.08833764,9.9e-05,53.216,220.5528,95.9279,264.1826,6.3746e-05,7.27e-06,0.0,0 STARLINK-5123,1 53979U 22125R   23041.66122764  .00000727  00000-0  63746-4 0  9995,2 53979  53.2160 220.5528 0000990  95.9279 264.1826 15.08833764 19852,6917.899,95.438,540.449,539.08,0.0
53979.0,STARLINK-5123,PAYLOAD,2023-02-11 04:35:15,15.08835727,9.88e-05,53.216,218.1743,87.6682,272.4423,6.2291e-05,7.04e-06,0.0,0 STARLINK-5123,1 53979U 22125R   23042.19114810  .00000704  00000-0  62291-4 0  9996,2 53979  53.2160 218.1743 0000988  87.6682 272.4423 15.08835727 19932,6917.893,95.438,540.442,539.075,0.0
53979.0,STARLINK-5123,PAYLOAD,2023-02-11 20:29:06,15.08836279,9.83e-05,53.2159,215.2007,89.3205,270.79,3.9833e-05,3.46e-06,0.0,0 STARLINK-5123,1 53979U 22125R   23042.85355106  .00000346  00000-0  39833-4 0  9992,2 53979  53.2159 215.2007 0000983  89.3205 270.7900 15.08836279 20033,6917.892,95.438,540.437,539.077,0.0
53979.0,STARLINK-5123,PAYLOAD,2023-02-12 12:22:58,15.08836723,0.0001135,53.2162,212.227,82.827,277.2851,0.00010412,1.369e-05,0.0,0 STARLINK-5123,1 53979U 22125R   23043.51595183  .00001369  00000-0  10412-3 0  9994,2 53979  53.2162 212.2270 0001135  82.8270 277.2851 15.08836723 20138,6917.89,95.438,540.541,538.97,0.0
53979.0,STARLINK-5123,PAYLOAD,2023-02-12 20:19:53,15.08848516,0.0001153,53.2161,210.7389,89.4486,270.6639,0.00013668,1.889e-05,0.0,0 STARLINK-5123,1 53979U 22125R   23043.84714339  .00001889  00000-0  13668-3 0  9999,2 53979  53.2161 210.7389 0001153  89.4486 270.6639 15.08848516 20250,6917.854,95.437,540.517,538.922,0.0
53979.0,STARLINK-5123,PAYLOAD,2023-02-13 10:38:22,15.08837994,0.000126,53.2173,208.0644,89.3165,270.7971,0.0001128,1.508e-05,0.0,0 STARLINK-5123,1 53979U 22125R   23044.44331136  .00001508  00000-0  11280-3 0  9992,2 53979  53.2173 208.0644 0001260  89.3165 270.7971 15.08837994 20347,6917.887,95.438,540.623,538.88,0.0
53979.0,STARLINK-5123,PAYLOAD,2023-02-13 16:59:54,15.08845191,0.0001291,53.2168,206.8745,90.7324,269.3817,0.00017015,2.421e-05,0.0,0 STARLINK-5123,1 53979U 22125R   23044.70826562  .00002421  00000-0  17015-3 0  9990,2 53979  53.2168 206.8745 0001291  90.7324 269.3817 15.08845191 20381,6917.865,95.437,540.623,538.836,0.0
